0 FENGYUN 1C DEB
1 32372U 99025CZR 13265.30506652  .00000630  00000-0  79463-3 0  2349
2 32372 097.3124 288.0763 0490731 003.9907 356.4915 13.24853402304980
0 FENGYUN 1C DEB
1 32372U 99025CZR 13267.87263127  .00000616  00000-0  77847-3 0  2359
2 32372 097.3144 289.8997 0490356 357.5711 002.2981 13.24856292305322
0 FENGYUN 1C DEB
1 32372U 99025CZR 13271.27087149  .00000625  00000-0  78960-3 0  2364
2 32372 097.3139 292.3023 0490512 348.8594 010.2095 13.24861052305775
0 FENGYUN 1C DEB
1 32372U 99025CZR 13278.89800578  .00000653  00000-0  82918-3 0  2378
2 32372 097.3105 297.6815 0488890 329.3811 028.0097 13.24872332306781
